STARLINK-31054          
1 58619U 23203B   26068.06150238  .00000057  00000+0  11595-4 0  9992
2 58619  43.0061  70.7851 0001116 265.1004  94.9720 15.27568374123465
FLOCK 4G-11             
1 62629U 25009W   26068.45629261  .00012672  00000+0  47740-3 0  9990
2 62629  97.3964 150.6183 0001611 333.5407  26.5750 15.27220677 63680
